TRANSPORTER-12 OBJECT BT
1 62674U 25009BT  26068.71416991  .00013824  00000+0  51029-3 0  9998
2 62674  97.4094 151.5992 0003682 313.5044  46.5889 15.27872239121360
STARLINK-32947          
1 63121U 25039T   26068.17335632  .00035426  00000+0  12927-2 0  9996
2 63121  43.0049  15.1957 0001372 260.7076  99.3620 15.27528698 57996
